*******************************************************************************
Ephemeris / WWW_USER Mon Mar 24 08:26:39 2025 Pasadena, USA      / Horizons    
*******************************************************************************
Target body name: (2018 VS8)                      {source: JPL#8}
Center body name: Earth (399)                     {source: DE441}
Center-site name: Mauna Kea
*******************************************************************************
Start time      : A.D. 2019-Jan-08 04:08:00.0000 UT      
Stop  time      : A.D. 2019-Jan-08 16:48:00.0000 UT      
Step-size       : 1 minutes
*******************************************************************************
Target pole/equ : undefined
Target radii    : undefined                                                    
Center geodetic : 204.5278, 19.8260847, 4.21024   {E-lon(deg),Lat(deg),Alt(km)}
Center cylindric: 204.5278, 6006.35451, 2151.0229 {E-lon(deg),Dxy(km),Dz(km)}
Center pole/equ : ITRF93                          {East-longitude positive}
Center radii    : 6378.137, 6378.137, 6356.752 km {Equator_a, b, pole_c}       
Target primary  : Sun
Vis. interferer : MOON (R_eq= 1737.400) km        {source: DE441}
Rel. light bend : Sun                             {source: DE441}
Rel. lght bnd GM: 1.3271E+11 km^3/s^2                                          
Small-body perts: Yes                             {source: SB441-N16}
Atmos refraction: NO (AIRLESS)
RA format       : HMS
Time format     : CAL 
Calendar mode   : Mixed Julian/Gregorian
RTS-only print  : NO       
EOP file        : eop.250321.p250617                                           
EOP coverage    : DATA-BASED 1962-JAN-20 TO 2025-MAR-21. PREDICTS-> 2025-JUN-16
Units conversion: 1 au= 149597870.700 km, c= 299792.458 km/s, 1 day= 86400.0 s 
Table cut-offs 1: Elevation (-90.0deg=NO ),Airmass (>38.000=NO), Daylight (YES)
Table cut-offs 2: Solar elongation (  0.0,180.0=NO ),Local Hour Angle( 0.0=NO )
Table cut-offs 3: RA/DEC angular rate (     0.0=NO )                           
*******************************************************************************
Initial IAU76/J2000 heliocentric ecliptic osculating elements (au, days, deg.):
  EPOCH=  2458433.5 ! 2018-Nov-11.00 (TDB)         Residual RMS= .33953        
   EC= .5263784885368822   QR= .9373233613851428   TP= 2458465.1575556668      
   OM= 53.89076972236643   W=  33.71683445616237   IN= 3.430463171034721       
  Equivalent ICRF heliocentric cartesian coordinates (au, au/d):
   X= 6.888560011548344E-01  Y= 6.928655939663307E-01  Z= 2.929974091538562E-01
  VX=-1.813811938800288E-02 VY= 8.693003909227039E-03 VZ= 5.111678677431928E-03
Asteroid physical parameters (km, seconds, rotational period in hours):        
   GM= n.a.                RAD= n.a.               ROTPER= n.a.                
   H= 27.2                 G= .150                 B-V= n.a.                   
                           ALBEDO= n.a.            STYP= n.a.                  
*******************************************************************************
 Date__(UT)__HR:MN     R.A._________(ICRF)_________DEC
******************************************************
$$SOE
 2019-Jan-08 16:26 N   13 43 06.217833 +02 34 45.35177
 2019-Jan-08 16:27 N   13 43 06.235899 +02 34 45.12510
 2019-Jan-08 16:28 N   13 43 06.253959 +02 34 44.89841
 2019-Jan-08 16:29 N   13 43 06.272014 +02 34 44.67170
 2019-Jan-08 16:30 N   13 43 06.290064 +02 34 44.44497
 2019-Jan-08 16:31 N   13 43 06.308108 +02 34 44.21822
 2019-Jan-08 16:32 N   13 43 06.326148 +02 34 43.99145
 2019-Jan-08 16:33 N   13 43 06.344184 +02 34 43.76466
 2019-Jan-08 16:34 N   13 43 06.362215 +02 34 43.53785
 2019-Jan-08 16:35 C   13 43 06.380241 +02 34 43.31102
 2019-Jan-08 16:36 C   13 43 06.398264 +02 34 43.08416
 2019-Jan-08 16:37 C   13 43 06.416282 +02 34 42.85729
 2019-Jan-08 16:38 C   13 43 06.434297 +02 34 42.63040
 2019-Jan-08 16:39 C   13 43 06.452309 +02 34 42.40348
 2019-Jan-08 16:40 C   13 43 06.470317 +02 34 42.17655
 2019-Jan-08 16:41 C   13 43 06.488321 +02 34 41.94959
 2019-Jan-08 16:42 C   13 43 06.506323 +02 34 41.72262
 2019-Jan-08 16:43 C   13 43 06.524322 +02 34 41.49562
 2019-Jan-08 16:44 C   13 43 06.542318 +02 34 41.26860
 2019-Jan-08 16:45 C   13 43 06.560312 +02 34 41.04157
 2019-Jan-08 16:46 C   13 43 06.578304 +02 34 40.81451
 2019-Jan-08 16:47 C   13 43 06.596293 +02 34 40.58743
 2019-Jan-08 16:48 C   13 43 06.614281 +02 34 40.36033
